SHIJIAN-28 (SJ-28)      
1 66549U 25277A   25356.78566815 -.00000336  00000+0  00000+0 0  9991
2 66549   4.9941 274.7989 0001030 134.0697  82.3344  1.00266610   386
CZ-7A R/B               
1 66550U 25277B   25352.37136448  .02663280  14058-5  30391-2 0  9996
2 66550  14.3533 266.9093 6879086 194.6822 125.1782  2.88841840   508
USA 568                 
1 66551U 24134K   25336.66670139 -.01709685  00000+0 -74303-2 0  9990
2 66551  53.1571 236.7807 0000717 110.7411 313.9012 15.87051116  2624
GLOBAL-33               
1 66554U 25267A   25356.37980313  .00014292  00000+0  46455-3 0  9997
2 66554  42.0212   1.3398 0004199 158.9843 201.1167 15.31669226  4883
STARLINK-35699          
1 66557U 25268A   25357.00001157 -.02060462  00000+0 -40042-1 0  9990
2 66557  43.0003  61.0844 0001009 265.9648 341.0922 15.50173277  6100
STARLINK-35695          
1 66558U 25268B   25357.00001157 -.02053479  00000+0 -38708-1 0  9997
2 66558  43.0007  61.0710 0001098 264.5548 348.3176 15.51008751  6105
STARLINK-35419          
1 66559U 25268C   25357.00001157 -.02081458  00000+0 -32511-1 0  9992
2 66559  43.0006  61.0376 0001450 260.9917   5.4360 15.56162884  6058
STARLINK-35411          
1 66560U 25268D   25357.00001157 -.02116264  00000+0 -32394-1 0  9997
2 66560  43.0004  61.0327 0001563 262.7185   5.5560 15.56753256  6104
STARLINK-35305          
1 66561U 25268E   25357.00001157 -.00064735  00000+0 -89344-3 0  9990
2 66561  43.0007  61.0231 0001567 274.9345 357.2734 15.56443544  6059
STARLINK-35579          
1 66562U 25268F   25357.00001157 -.01059727  00000+0 -15853-1 0  9999
2 66562  43.0006  61.0276 0001710 265.2579   4.9789 15.56762875  6103
STARLINK-35437          
1 66563U 25268G   25357.00001157  .00030537  00000+0  42454-3 0  9994
2 66563  43.0006  61.0187 0001596 265.4778   8.6574 15.56401159  6108
STARLINK-35358          
1 66564U 25268H   25357.00001157 -.00062335  00000+0 -85992-3 0  9992
2 66564  43.0007  61.0138 0001519 267.4379   8.6053 15.56442135  6055
