CCSDS_OMM_VERS = 2.0
CREATION_DATE  = 
ORIGINATOR     = 

OBJECT_NAME    = SHIJIAN-28 (SJ-28)
OBJECT_ID      = 2025-277A
CENTER_NAME    = EARTH
REF_FRAME      = TEME
TIME_SYSTEM    = UTC
MEAN_ELEMENT_THEORY = SGP/SGP4

EPOCH          = 2025-12-22T18:51:21.728160
MEAN_MOTION    = 1.00266610
ECCENTRICITY   = .00010301
INCLINATION    = 4.9941
RA_OF_ASC_NODE = 274.7989
ARG_OF_PERICENTER = 134.0697
MEAN_ANOMALY   = 82.3344

EPHEMERIS_TYPE = 0
CLASSIFICATION_TYPE = U
NORAD_CAT_ID   = 66549
ELEMENT_SET_NO = 999
REV_AT_EPOCH   = 38
BSTAR          = 0
MEAN_MOTION_DOT = -.336E-5
MEAN_MOTION_DDOT = 0

CCSDS_OMM_VERS = 2.0
CREATION_DATE  = 
ORIGINATOR     = 

OBJECT_NAME    = CZ-7A R/B
OBJECT_ID      = 2025-277B
CENTER_NAME    = EARTH
REF_FRAME      = TEME
TIME_SYSTEM    = UTC
MEAN_ELEMENT_THEORY = SGP/SGP4

EPOCH          = 2025-12-18T08:54:45.891072
MEAN_MOTION    = 2.88841840
ECCENTRICITY   = .6879086
INCLINATION    = 14.3533
RA_OF_ASC_NODE = 266.9093
ARG_OF_PERICENTER = 194.6822
MEAN_ANOMALY   = 125.1782

EPHEMERIS_TYPE = 0
CLASSIFICATION_TYPE = U
NORAD_CAT_ID   = 66550
ELEMENT_SET_NO = 999
REV_AT_EPOCH   = 50
BSTAR          = .30391E-2
MEAN_MOTION_DOT = .266328E-1
MEAN_MOTION_DDOT = .14058E-5

CCSDS_OMM_VERS = 2.0
CREATION_DATE  = 
ORIGINATOR     = 

OBJECT_NAME    = USA 568
OBJECT_ID      = 2024-134K
CENTER_NAME    = EARTH
REF_FRAME      = TEME
TIME_SYSTEM    = UTC
MEAN_ELEMENT_THEORY = SGP/SGP4

EPOCH          = 2025-12-02T16:00:03.000096
MEAN_MOTION    = 15.87051116
ECCENTRICITY   = .0000717
INCLINATION    = 53.1571
RA_OF_ASC_NODE = 236.7807
ARG_OF_PERICENTER = 110.7411
MEAN_ANOMALY   = 313.9012

EPHEMERIS_TYPE = 0
CLASSIFICATION_TYPE = U
NORAD_CAT_ID   = 66551
ELEMENT_SET_NO = 999
REV_AT_EPOCH   = 262
BSTAR          = -.74303E-2
MEAN_MOTION_DOT = -.1709685E-1
MEAN_MOTION_DDOT = 0

CCSDS_OMM_VERS = 2.0
CREATION_DATE  = 
ORIGINATOR     = 

OBJECT_NAME    = GLOBAL-33
OBJECT_ID      = 2025-267A
CENTER_NAME    = EARTH
REF_FRAME      = TEME
TIME_SYSTEM    = UTC
MEAN_ELEMENT_THEORY = SGP/SGP4

EPOCH          = 2025-12-22T09:06:54.990432
MEAN_MOTION    = 15.31669226
ECCENTRICITY   = .0004199
INCLINATION    = 42.0212
RA_OF_ASC_NODE = 1.3398
ARG_OF_PERICENTER = 158.9843
MEAN_ANOMALY   = 201.1167

EPHEMERIS_TYPE = 0
CLASSIFICATION_TYPE = U
NORAD_CAT_ID   = 66554
ELEMENT_SET_NO = 999
REV_AT_EPOCH   = 488
BSTAR          = .46455303E-3
MEAN_MOTION_DOT = .14292E-3
MEAN_MOTION_DDOT = 0

CCSDS_OMM_VERS = 2.0
CREATION_DATE  = 
ORIGINATOR     = 

OBJECT_NAME    = STARLINK-35699
OBJECT_ID      = 2025-268A
CENTER_NAME    = EARTH
REF_FRAME      = TEME
TIME_SYSTEM    = UTC
MEAN_ELEMENT_THEORY = SGP/SGP4

EPOCH          = 2025-12-23T00:00:00.999648
MEAN_MOTION    = 15.50173277
ECCENTRICITY   = .00010096
INCLINATION    = 43.0003
RA_OF_ASC_NODE = 61.0844
ARG_OF_PERICENTER = 265.9648
MEAN_ANOMALY   = 341.0922

EPHEMERIS_TYPE = 0
CLASSIFICATION_TYPE = U
NORAD_CAT_ID   = 66557
ELEMENT_SET_NO = 999
REV_AT_EPOCH   = 610
BSTAR          = -.40042316E-1
MEAN_MOTION_DOT = -.2060462E-1
MEAN_MOTION_DDOT = 0

CCSDS_OMM_VERS = 2.0
CREATION_DATE  = 
ORIGINATOR     = 

OBJECT_NAME    = STARLINK-35695
OBJECT_ID      = 2025-268B
CENTER_NAME    = EARTH
REF_FRAME      = TEME
TIME_SYSTEM    = UTC
MEAN_ELEMENT_THEORY = SGP/SGP4

EPOCH          = 2025-12-23T00:00:00.999648
MEAN_MOTION    = 15.51008751
ECCENTRICITY   = .00010981
INCLINATION    = 43.0007
RA_OF_ASC_NODE = 61.0710
ARG_OF_PERICENTER = 264.5548
MEAN_ANOMALY   = 348.3176

EPHEMERIS_TYPE = 0
CLASSIFICATION_TYPE = U
NORAD_CAT_ID   = 66558
ELEMENT_SET_NO = 999
REV_AT_EPOCH   = 610
BSTAR          = -.38708483E-1
MEAN_MOTION_DOT = -.2053479E-1
MEAN_MOTION_DDOT = 0

CCSDS_OMM_VERS = 2.0
CREATION_DATE  = 
ORIGINATOR     = 

OBJECT_NAME    = STARLINK-35419
OBJECT_ID      = 2025-268C
CENTER_NAME    = EARTH
REF_FRAME      = TEME
TIME_SYSTEM    = UTC
MEAN_ELEMENT_THEORY = SGP/SGP4

EPOCH          = 2025-12-23T00:00:00.999648
MEAN_MOTION    = 15.56162884
ECCENTRICITY   = .00014508
INCLINATION    = 43.0006
RA_OF_ASC_NODE = 61.0376
ARG_OF_PERICENTER = 260.9917
MEAN_ANOMALY   = 5.4360

EPHEMERIS_TYPE = 0
CLASSIFICATION_TYPE = U
NORAD_CAT_ID   = 66559
ELEMENT_SET_NO = 999
REV_AT_EPOCH   = 605
BSTAR          = -.32510893E-1
MEAN_MOTION_DOT = -.2081458E-1
MEAN_MOTION_DDOT = 0

CCSDS_OMM_VERS = 2.0
CREATION_DATE  = 
ORIGINATOR     = 

OBJECT_NAME    = STARLINK-35411
OBJECT_ID      = 2025-268D
CENTER_NAME    = EARTH
REF_FRAME      = TEME
TIME_SYSTEM    = UTC
MEAN_ELEMENT_THEORY = SGP/SGP4

EPOCH          = 2025-12-23T00:00:00.999648
MEAN_MOTION    = 15.56753256
ECCENTRICITY   = .00015637
INCLINATION    = 43.0004
RA_OF_ASC_NODE = 61.0327
ARG_OF_PERICENTER = 262.7185
MEAN_ANOMALY   = 5.5560

EPHEMERIS_TYPE = 0
CLASSIFICATION_TYPE = U
NORAD_CAT_ID   = 66560
ELEMENT_SET_NO = 999
REV_AT_EPOCH   = 610
BSTAR          = -.32393808E-1
MEAN_MOTION_DOT = -.2116264E-1
MEAN_MOTION_DDOT = 0

CCSDS_OMM_VERS = 2.0
CREATION_DATE  = 
ORIGINATOR     = 

OBJECT_NAME    = STARLINK-35305
OBJECT_ID      = 2025-268E
CENTER_NAME    = EARTH
REF_FRAME      = TEME
TIME_SYSTEM    = UTC
MEAN_ELEMENT_THEORY = SGP/SGP4

EPOCH          = 2025-12-23T00:00:00.999648
MEAN_MOTION    = 15.56443544
ECCENTRICITY   = .00015672
INCLINATION    = 43.0007
RA_OF_ASC_NODE = 61.0231
ARG_OF_PERICENTER = 274.9345
MEAN_ANOMALY   = 357.2734

EPHEMERIS_TYPE = 0
CLASSIFICATION_TYPE = U
NORAD_CAT_ID   = 66561
ELEMENT_SET_NO = 999
REV_AT_EPOCH   = 605
BSTAR          = -.89343691E-3
MEAN_MOTION_DOT = -.64735E-3
MEAN_MOTION_DDOT = 0

CCSDS_OMM_VERS = 2.0
CREATION_DATE  = 
ORIGINATOR     = 

OBJECT_NAME    = STARLINK-35579
OBJECT_ID      = 2025-268F
CENTER_NAME    = EARTH
REF_FRAME      = TEME
TIME_SYSTEM    = UTC
MEAN_ELEMENT_THEORY = SGP/SGP4

EPOCH          = 2025-12-23T00:00:00.999648
MEAN_MOTION    = 15.56762875
ECCENTRICITY   = .00017107
INCLINATION    = 43.0006
RA_OF_ASC_NODE = 61.0276
ARG_OF_PERICENTER = 265.2579
MEAN_ANOMALY   = 4.9789

EPHEMERIS_TYPE = 0
CLASSIFICATION_TYPE = U
NORAD_CAT_ID   = 66562
ELEMENT_SET_NO = 999
REV_AT_EPOCH   = 610
BSTAR          = -.15853412E-1
MEAN_MOTION_DOT = -.1059727E-1
MEAN_MOTION_DDOT = 0

CCSDS_OMM_VERS = 2.0
CREATION_DATE  = 
ORIGINATOR     = 

OBJECT_NAME    = STARLINK-35437
OBJECT_ID      = 2025-268G
CENTER_NAME    = EARTH
REF_FRAME      = TEME
TIME_SYSTEM    = UTC
MEAN_ELEMENT_THEORY = SGP/SGP4

EPOCH          = 2025-12-23T00:00:00.999648
MEAN_MOTION    = 15.56401159
ECCENTRICITY   = .00015965
INCLINATION    = 43.0006
RA_OF_ASC_NODE = 61.0187
ARG_OF_PERICENTER = 265.4778
MEAN_ANOMALY   = 8.6574

EPHEMERIS_TYPE = 0
CLASSIFICATION_TYPE = U
NORAD_CAT_ID   = 66563
ELEMENT_SET_NO = 999
REV_AT_EPOCH   = 610
BSTAR          = .42454078E-3
MEAN_MOTION_DOT = .30537E-3
MEAN_MOTION_DDOT = 0

CCSDS_OMM_VERS = 2.0
CREATION_DATE  = 
ORIGINATOR     = 

OBJECT_NAME    = STARLINK-35358
OBJECT_ID      = 2025-268H
CENTER_NAME    = EARTH
REF_FRAME      = TEME
TIME_SYSTEM    = UTC
MEAN_ELEMENT_THEORY = SGP/SGP4

EPOCH          = 2025-12-23T00:00:00.999648
MEAN_MOTION    = 15.56442135
ECCENTRICITY   = .00015197
INCLINATION    = 43.0007
RA_OF_ASC_NODE = 61.0138
ARG_OF_PERICENTER = 267.4379
MEAN_ANOMALY   = 8.6053

EPHEMERIS_TYPE = 0
CLASSIFICATION_TYPE = U
NORAD_CAT_ID   = 66564
ELEMENT_SET_NO = 999
REV_AT_EPOCH   = 605
BSTAR          = -.85992151E-3
MEAN_MOTION_DOT = -.62335E-3
MEAN_MOTION_DDOT = 0

